0 FENGYUN 1C DEB
1 38783U 99025ETX 13281.24924122  .00003168  00000-0  77622-3 0   485
2 38783 098.8515 297.3804 0338862 009.4267 351.3014 14.23786109161284
0 FENGYUN 1C DEB
1 38783U 99025ETX 13285.81689553  .00003397  00000-0  83572-3 0   494
2 38783 098.8576 301.9981 0337147 356.2179 003.7053 14.23818688161930
0 FENGYUN 1C DEB
1 38783U 99025ETX 13287.85472494  .00003770  00000-0  93020-3 0   500
2 38783 098.8576 304.0480 0335766 350.4042 009.0947 14.23835784162228
0 FENGYUN 1C DEB
1 38783U 99025ETX 13292.28167114  .00004880  00000-0  11947-2 0   514
2 38783 098.8594 308.5224 0336681 337.4481 021.3079 14.23881795162857
0 FENGYUN 1C DEB
1 38783U 99025ETX 13293.26539974  .00005049  00000-0  12232-2 0   527
2 38783 098.8546 309.5118 0339417 334.5874 023.8618 14.23891939162993
